start=new Date('2023-05-16T00:00:00.000Z').valueOf();
sats=[{"TLE_LINE2":"2 45071  53.0542 206.3107 0001010  71.8477 288.2621 15.06421351181976","TIME_SYSTEM":"UTC","SITE":"AFETR","GP_ID":"231921882","EPHEMERIS_TYPE":"0","OBJECT_ID":"2020-006AD","RCS_SIZE":"LARGE","MEAN_MOTION_DOT":"0.00015044","SEMIMAJOR_AXIS":"6925.283","REV_AT_EPOCH":"18197","EPOCH":"2023-05-15T14:47:46.542624","MEAN_ANOMALY":"288.2621","OBJECT_NAME":"STARLINK-1167","FILE":"3908892","BSTAR":"0.00102610000000","COUNTRY_CODE":"US","CENTER_NAME":"EARTH","NORAD_CAT_ID":"45071","ARG_OF_PERICENTER":"71.8477","RA_OF_ASC_NODE":"206.3107","INCLINATION":"53.0542","ECCENTRICITY":"0.00010100","OBJECT_TYPE":"PAYLOAD","PERIAPSIS":"546.449","MEAN_MOTION":"15.06421351","PERIOD":"95.591","CLASSIFICATION_TYPE":"U","DECAY_DATE":null,"LAUNCH_DATE":"2020-01-29","ELEMENT_SET_NO":"999","MEAN_ELEMENT_THEORY":"SGP4","APOAPSIS":"547.848","MEAN_MOTION_DDOT":"0.0000000000000","TLE_LINE1":"1 45071U 20006AD  23135.61651091  .00015044  00000-0  10261-2 0  9994","REF_FRAME":"TEME"},{"EPHEMERIS_TYPE":"0","TIME_SYSTEM":"UTC","TLE_LINE2":"2 45072  53.0535 206.8820 0001252  81.6799 278.4331 15.06420877181612","SITE":"AFETR","GP_ID":"231890819","MEAN_ANOMALY":"278.4331","OBJECT_NAME":"STARLINK-1168","EPOCH":"2023-05-15T11:42:00.244512","REV_AT_EPOCH":"18161","OBJECT_ID":"2020-006AE","SEMIMAJOR_AXIS":"6925.285","MEAN_MOTION_DOT":"0.00017523","RCS_SIZE":"LARGE","MEAN_MOTION":"15.06420877","PERIAPSIS":"546.283","CLASSIFICATION_TYPE":"U","PERIOD":"95.591","ECCENTRICITY":"0.00012520","RA_OF_ASC_NODE":"206.8820","INCLINATION":"53.0535","ARG_OF_PERICENTER":"81.6799","OBJECT_TYPE":"PAYLOAD","NORAD_CAT_ID":"45072","CENTER_NAME":"EARTH","FILE":"3908681","COUNTRY_CODE":"US","BSTAR":"0.00119170000000","REF_FRAME":"TEME","MEAN_MOTION_DDOT":"0.0000000000000","TLE_LINE1":"1 45072U 20006AE  23135.48750283  .00017523  00000-0  11917-2 0  9996","ELEMENT_SET_NO":"999","APOAPSIS":"548.017","MEAN_ELEMENT_THEORY":"SGP4","DECAY_DATE":null,"LAUNCH_DATE":"2020-01-29"},{"EPHEMERIS_TYPE":"0","SITE":"AFETR","GP_ID":"231922883","TLE_LINE2":"2 45073  53.0535 206.4743 0001295  76.9738 283.1395 15.06398064181963","TIME_SYSTEM":"UTC","EPOCH":"2023-05-15T13:54:43.844832","OBJECT_NAME":"STARLINK-1170","MEAN_ANOMALY":"283.1395","MEAN_MOTION_DOT":"0.00014653","RCS_SIZE":"LARGE","SEMIMAJOR_AXIS":"6925.354","OBJECT_ID":"2020-006AF","REV_AT_EPOCH":"18196","OBJECT_TYPE":"PAYLOAD","ARG_OF_PERICENTER":"76.9738","ECCENTRICITY":"0.00012950","RA_OF_ASC_NODE":"206.4743","INCLINATION":"53.0535","PERIOD":"95.592","CLASSIFICATION_TYPE":"U","PERIAPSIS":"546.323","MEAN_MOTION":"15.06398064","BSTAR":"0.00100060000000","COUNTRY_CODE":"US","FILE":"3908892","CENTER_NAME":"EARTH","NORAD_CAT_ID":"45073","TLE_LINE1":"1 45073U 20006AF  23135.57967413  .00014653  00000-0  10006-2 0  9991","MEAN_MOTION_DDOT":"0.0000000000000","REF_FRAME":"TEME","LAUNCH_DATE":"2020-01-29","DECAY_DATE":null,"MEAN_ELEMENT_THEORY":"SGP4","APOAPSIS":"548.116","ELEMENT_SET_NO":"999"},{"CLASSIFICATION_TYPE":"U","PERIOD":"95.592","MEAN_MOTION":"15.06409059","PERIAPSIS":"546.500","OBJECT_TYPE":"PAYLOAD","INCLINATION":"53.0523","RA_OF_ASC_NODE":"206.8319","ECCENTRICITY":"0.00009900","ARG_OF_PERICENTER":"78.9775","NORAD_CAT_ID":"45074","CENTER_NAME":"EARTH","COUNTRY_CODE":"US","BSTAR":"0.00048917000000","FILE":"3908681","REF_FRAME":"TEME","MEAN_MOTION_DDOT":"0.0000000000000","TLE_LINE1":"1 45074U 20006AG  23135.49855857  .00007014  00000-0  48917-3 0  9997","APOAPSIS":"547.871","MEAN_ELEMENT_THEORY":"SGP4","ELEMENT_SET_NO":"999","DECAY_DATE":null,"LAUNCH_DATE":"2020-01-29","EPHEMERIS_TYPE":"0","GP_ID":"231891816","SITE":"AFETR","TIME_SYSTEM":"UTC","TLE_LINE2":"2 45074  53.0523 206.8319 0000990  78.9775 281.1325 15.06409059181618","OBJECT_NAME":"STARLINK-1172","MEAN_ANOMALY":"281.1325","EPOCH":"2023-05-15T11:57:55.460448","REV_AT_EPOCH":"18161","SEMIMAJOR_AXIS":"6925.321","MEAN_MOTION_DOT":"0.00007014","RCS_SIZE":"LARGE","OBJECT_ID":"2020-006AG"},{"EPOCH":"2023-05-15T11:10:09.649344","MEAN_ANOMALY":"275.5664","OBJECT_NAME":"STARLINK-1174","OBJECT_ID":"2020-006AH","SEMIMAJOR_AXIS":"6925.297","RCS_SIZE":"LARGE","MEAN_MOTION_DOT":"0.00017863","REV_AT_EPOCH":"18161","EPHEMERIS_TYPE":"0","TIME_SYSTEM":"UTC","TLE_LINE2":"2 45075  53.0533 206.9832 0000900  84.5428 275.5664 15.06416799181612","GP_ID":"231891070","SITE":"AFETR","TLE_LINE1":"1 45075U 20006AH  23135.46538946  .00017863  00000-0  12145-2 0  9998","MEAN_MOTION_DDOT":"0.0000000000000","REF_FRAME":"TEME","DECAY_DATE":null,"LAUNCH_DATE":"2020-01-29","ELEMENT_SET_NO":"999","APOAPSIS":"547.785","MEAN_ELEMENT_THEORY":"SGP4","RA_OF_ASC_NODE":"206.9832","INCLINATION":"53.0533","ECCENTRICITY":"0.00009000","ARG_OF_PERICENTER":"84.5428","OBJECT_TYPE":"PAYLOAD","MEAN_MOTION":"15.06416799","PERIAPSIS":"546.539","CLASSIFICATION_TYPE":"U","PERIOD":"95.591","FILE":"3908681","COUNTRY_CODE":"US","BSTAR":"0.00121450000000","NORAD_CAT_ID":"45075","CENTER_NAME":"EARTH"},{"CLASSIFICATION_TYPE":"U","PERIOD":"95.590","MEAN_MOTION":"15.06431181","PERIAPSIS":"546.233","OBJECT_TYPE":"PAYLOAD","INCLINATION":"53.0535","RA_OF_ASC_NODE":"206.3489","ECCENTRICITY":"0.00012780","ARG_OF_PERICENTER":"79.0720","NORAD_CAT_ID":"45076","CENTER_NAME":"EARTH","COUNTRY_CODE":"US","BSTAR":"0.00113570000000","FILE":"3908892","REF_FRAME":"TEME","MEAN_MOTION_DDOT":"0.0000000000000","TLE_LINE1":"1 45076U 20006AJ  23135.60449955  .00016689  00000-0  11357-2 0  9995","APOAPSIS":"548.003","MEAN_ELEMENT_THEORY":"SGP4","ELEMENT_SET_NO":"999","DECAY_DATE":null,"LAUNCH_DATE":"2020-01-29","EPHEMERIS_TYPE":"0","SITE":"AFETR","GP_ID":"231922633","TIME_SYSTEM":"UTC","TLE_LINE2":"2 45076  53.0535 206.3489 0001278  79.0720 281.0412 15.06431181181637","OBJECT_NAME":"STARLINK-1180","MEAN_ANOMALY":"281.0412","EPOCH":"2023-05-15T14:30:28.761120","REV_AT_EPOCH":"18163","SEMIMAJOR_AXIS":"6925.253","RCS_SIZE":"LARGE","MEAN_MOTION_DOT":"0.00016689","OBJECT_ID":"2020-006AJ"},{"MEAN_ELEMENT_THEORY":"SGP4","APOAPSIS":"548.051","ELEMENT_SET_NO":"999","LAUNCH_DATE":"2020-01-29","DECAY_DATE":null,"REF_FRAME":"TEME","TLE_LINE1":"1 45078U 20006AL  23135.62388942  .00018973  00000-0  12883-2 0  9990","MEAN_MOTION_DDOT":"0.0000000000000","CENTER_NAME":"EARTH","NORAD_CAT_ID":"45078","BSTAR":"0.00128830000000","COUNTRY_CODE":"US","FILE":"3908892","PERIOD":"95.590","CLASSIFICATION_TYPE":"U","PERIAPSIS":"546.215","MEAN_MOTION":"15.06426335","OBJECT_TYPE":"PAYLOAD","ARG_OF_PERICENTER":"63.4065","ECCENTRICITY":"0.00013260","RA_OF_ASC_NODE":"206.2697","INCLINATION":"53.0534","REV_AT_EPOCH":"18162","MEAN_MOTION_DOT":"0.00018973","RCS_SIZE":"LARGE","SEMIMAJOR_AXIS":"6925.268","OBJECT_ID":"2020-006AL","OBJECT_NAME":"STARLINK-1177","MEAN_ANOMALY":"296.7059","EPOCH":"2023-05-15T14:58:24.045888","GP_ID":"231923384","SITE":"AFETR","TLE_LINE2":"2 45078  53.0534 206.2697 0001326  63.4065 296.7059 15.06426335181625","TIME_SYSTEM":"UTC","EPHEMERIS_TYPE":"0"},{"GP_ID":"231892316","SITE":"AFETR","TIME_SYSTEM":"UTC","TLE_LINE2":"2 45079  53.0530 206.9605 0001192  77.2497 282.8625 15.06420222181603","EPHEMERIS_TYPE":"0","SEMIMAJOR_AXIS":"6925.287","RCS_SIZE":"LARGE","MEAN_MOTION_DOT":"0.00017981","OBJECT_ID":"2020-006AM","REV_AT_EPOCH":"18160","EPOCH":"2023-05-15T11:14:06.533088","OBJECT_NAME":"STARLINK-1149","MEAN_ANOMALY":"282.8625","COUNTRY_CODE":"US","BSTAR":"0.00122230000000","FILE":"3908681","NORAD_CAT_ID":"45079","CENTER_NAME":"EARTH","OBJECT_TYPE":"PAYLOAD","RA_OF_ASC_NODE":"206.9605","ECCENTRICITY":"0.00011920","INCLINATION":"53.0530","ARG_OF_PERICENTER":"77.2497","CLASSIFICATION_TYPE":"U","PERIOD":"95.591","MEAN_MOTION":"15.06420222","PERIAPSIS":"546.326","DECAY_DATE":null,"LAUNCH_DATE":"2020-01-29","APOAPSIS":"547.977","MEAN_ELEMENT_THEORY":"SGP4","ELEMENT_SET_NO":"999","MEAN_MOTION_DDOT":"0.0000000000000","TLE_LINE1":"1 45079U 20006AM  23135.46813117  .00017981  00000-0  12223-2 0  9996","REF_FRAME":"TEME"},{"TLE_LINE1":"1 45080U 20006AN  23135.47644924  .00014382  00000-0  98175-3 0  9990","MEAN_MOTION_DDOT":"0.0000000000000","REF_FRAME":"TEME","LAUNCH_DATE":"2020-01-29","DECAY_DATE":null,"ELEMENT_SET_NO":"999","MEAN_ELEMENT_THEORY":"SGP4","APOAPSIS":"547.947","ARG_OF_PERICENTER":"68.3850","INCLINATION":"53.0532","RA_OF_ASC_NODE":"206.9325","ECCENTRICITY":"0.00011710","OBJECT_TYPE":"PAYLOAD","PERIAPSIS":"546.325","MEAN_MOTION":"15.06425421","PERIOD":"95.591","CLASSIFICATION_TYPE":"U","FILE":"3908681","BSTAR":"0.00098175000000","COUNTRY_CODE":"US","CENTER_NAME":"EARTH","NORAD_CAT_ID":"45080","EPOCH":"2023-05-15T11:26:05.214336","MEAN_ANOMALY":"291.7264","OBJECT_NAME":"STARLINK-1153","OBJECT_ID":"2020-006AN","MEAN_MOTION_DOT":"0.00014382","RCS_SIZE":"LARGE","SEMIMAJOR_AXIS":"6925.271","REV_AT_EPOCH":"18161","EPHEMERIS_TYPE":"0","TLE_LINE2":"2 45080  53.0532 206.9325 0001171  68.3850 291.7264 15.06425421181612","TIME_SYSTEM":"UTC","SITE":"AFETR","GP_ID":"231890570"},{"INCLINATION":"53.0537","RA_OF_ASC_NODE":"206.4382","ECCENTRICITY":"0.00013130","ARG_OF_PERICENTER":"82.2276","OBJECT_TYPE":"PAYLOAD","MEAN_MOTION":"15.06413884","PERIAPSIS":"546.262","CLASSIFICATION_TYPE":"U","PERIOD":"95.591","FILE":"3908892","COUNTRY_CODE":"US","BSTAR":"0.00041238000000","NORAD_CAT_ID":"45081","CENTER_NAME":"EARTH","TLE_LINE1":"1 45081U 20006AP  23135.58607724  .00005868  00000-0  41238-3 0  9997","MEAN_MOTION_DDOT":"0.0000000000000","REF_FRAME":"TEME","DECAY_DATE":null,"LAUNCH_DATE":"2020-01-29","ELEMENT_SET_NO":"999","APOAPSIS":"548.080","MEAN_ELEMENT_THEORY":"SGP4","EPHEMERIS_TYPE":"0","TIME_SYSTEM":"UTC","TLE_LINE2":"2 45081  53.0537 206.4382 0001313  82.2276 277.8862 15.06413884181632","GP_ID":"231922133","SITE":"AFETR","EPOCH":"2023-05-15T14:03:57.073536","MEAN_ANOMALY":"277.8862","OBJECT_NAME":"STARLINK-1151","OBJECT_ID":"2020-006AP","SEMIMAJOR_AXIS":"6925.306","MEAN_MOTION_DOT":"0.00005868","RCS_SIZE":"LARGE","REV_AT_EPOCH":"18163"}];
